     2.100          NAVIGATION                              RINEX VERSION / TYPE
fic2rin                                 01/01/2016 00:08:14 PGM / RUN BY / DATE
                                                            END OF HEADER
32 15 12 31  1 59 44.0  .649727880955D-04  .122781784739D-10  .000000000000D+00
     .100000000000D+02  .166875000000D+02  .474484049879D-08 -.255864243620D+01
     .836327672005D-06  .113693971653D-01  .933371484280D-05  .515363798332D+04
     .352784000000D+06 -.134110450745D-06  .159131407031D+01 -.167638063431D-06
     .946382484766D+00  .192031250000D+03  .203978569395D+00 -.799854745732D-08
     .343228582562D-09  .100000000000D+01  .187700000000D+04  .000000000000D+00
     .240000000000D+01  .000000000000D+00 -.325962901115D-08  .100000000000D+02
     .350226000000D+06  .400000000000D+01
27 15 12 31  3 59 44.0  .490872189403D-04  .341060513165D-11  .000000000000D+00
     .280000000000D+02 -.166562500000D+02  .460697761340D-08  .929288804883D+00
    -.761821866035D-06  .292766361963D-02  .407360494137D-05  .515371237183D+04
     .359984000000D+06  .409781932831D-07 -.586090281813D+00 -.186264514923D-08
     .969878254042D+00  .302156250000D+03  .234247614268D+00 -.832141804903D-08
    -.321441960776D-11  .100000000000D+01  .187700000000D+04  .000000000000D+00
     .240000000000D+01  .000000000000D+00  .186264514923D-08  .280000000000D+02
     .352806000000D+06  .400000000000D+01
32 15 12 31  3 59 44.0  .650607980788D-04  .122781784739D-10  .000000000000D+00
     .110000000000D+02  .165000000000D+02  .476412701644D-08 -.150840770420D+01
     .812113285065D-06  .113693479216D-01  .945851206779D-05  .515363859749D+04
     .359984000000D+06  .279396772385D-07  .159125572475D+01 -.182539224625D-06
     .946385246756D+00  .189062500000D+03  .203948543001D+00 -.805962142987D-08
     .418231706744D-09  .100000000000D+01  .187700000000D+04  .000000000000D+00
     .240000000000D+01  .000000000000D+00 -.325962901115D-08  .110000000000D+02
     .352806000000D+06  .400000000000D+01
 1 15 12 31  4  0  0.0  .794604420662D-05  .909494701773D-12  .000000000000D+00
     .660000000000D+02 -.755000000000D+02  .435768151493D-08 -.123377491241D+01
    -.392086803913D-05  .493337505031D-02  .843219459057D-05  .515365804482D+04
     .360000000000D+06  .150874257088D-06  .471135974144D+00 -.115483999252D-06
     .963699749734D+00  .220000000000D+03  .485409992075D+00 -.796390315710D-08
    -.178936024832D-09  .100000000000D+01  .187700000000D+04  .000000000000D+00
     .240000000000D+01  .000000000000D+00  .512227416039D-08  .660000000000D+02
     .352806000000D+06  .400000000000D+01
 2 15 12 31  4  0  0.0  .598656479269D-03  .454747350886D-12  .000000000000D+00
     .510000000000D+02 -.644375000000D+02  .505056751927D-08 -.693655750141D+00
    -.324472784996D-05  .151764312759D-01  .788085162640D-05  .515369421005D+04
     .360000000000D+06 -.558793544769D-08  .428840930740D+00  .303611159325D-06
     .942427062956D+00  .220343750000D+03 -.219345890374D+01 -.851071164816D-08
    -.178936024832D-09  .100000000000D+01  .187700000000D+04  .000000000000D+00
     .240000000000D+01  .000000000000D+00 -.204890966415D-07  .510000000000D+02
     .352806000000D+06  .400000000000D+01
 3 15 12 31  4  0  0.0 -.509293749928D-05 -.511590769747D-11  .000000000000D+00
     .830000000000D+02  .115625000000D+02  .445732852277D-08  .163204011213D+01
     .717118382454D-06  .328920781612D-03  .960007309914D-05  .515379715919D+04
     .360000000000D+06 -.316649675369D-07  .151214389895D+01  .316649675369D-07
     .958828141829D+00  .193750000000D+03  .287511779668D+01 -.791818696713D-08
     .252153360342D-09  .100000000000D+01  .187700000000D+04  .000000000000D+00
     .240000000000D+01  .000000000000D+00  .186264514923D-08  .830000000000D+02
     .352806000000D+06  .400000000000D+01
 5 15 12 31  4  0  0.0 -.159929506481D-03  .363797880709D-11  .000000000000D+00
     .580000000000D+02  .216562500000D+02  .482055793844D-08  .173172709658D+01
     .115856528282D-05  .458677532151D-02  .949017703533D-05  .515370545197D+04
     .360000000000D+06 -.577419996262D-07  .150222206231D+01 -.558793544769D-08
     .945960450455D+00  .191312500000D+03  .485830409861D+00 -.811319509000D-08
     .183936233111D-09  .100000000000D+01  .187700000000D+04  .000000000000D+00
     .240000000000D+01  .000000000000D+00 -.107102096081D-07  .580000000000D+02
     .352806000000D+06  .400000000000D+01
 6 15 12 31  4  0  0.0  .121178105474D-03  .636646291241D-11  .000000000000D+00
     .260000000000D+02 -.672812500000D+02  .440768359771D-08  .415106056639D+00
    -.349618494511D-05  .217219116166D-03  .827759504318D-05  .515361112404D+04
     .360000000000D+06 -.186264514923D-08  .462682961380D+00  .186264514923D-07
     .963556749492D+00  .222812500000D+03 -.272318680675D+01 -.800890503161D-08
    -.130005415247D-09  .100000000000D+01  .187700000000D+04  .000000000000D+00
     .240000000000D+01  .000000000000D+00  .419095158577D-08  .260000000000D+02
     .352806000000D+06  .400000000000D+01
 7 15 12 31  4  0  0.0  .475533772260D-03 -.136424205266D-11  .000000000000D+00
     .920000000000D+02  .937500000000D-01  .434160941689D-08 -.191490462399D+01
    -.191852450371D-06  .901281798724D-02  .806339085102D-05  .515368395996D+04
     .360000000000D+06  .614672899246D-07 -.265274782788D+01 -.115483999252D-06
     .968310693433D+00  .227500000000D+03 -.267966935338D+01 -.789247161027D-08
    -.136791412197D-09  .100000000000D+01  .187700000000D+04  .000000000000D+00
     .340000000000D+01  .000000000000D+00 -.111758708954D-07  .920000000000D+02
     .352806000000D+06  .400000000000D+01
 8 15 12 31  4  0  0.0 -.182171352208D-04 -.136424205266D-11  .000000000000D+00
     .840000000000D+02 -.178437500000D+02  .473341145130D-08  .222483870720D+01
    -.940635800362D-06  .168677349575D-02  .393576920033D-05  .515362579155D+04
     .360000000000D+06 -.204890966415D-07 -.587607516577D+00 -.409781932831D-07
     .961794854845D+00  .299500000000D+03 -.153272958624D+01 -.832820404598D-08
    -.160720980388D-10  .100000000000D+01  .187700000000D+04  .000000000000D+00
     .340000000000D+01  .000000000000D+00  .465661287308D-08  .840000000000D+02
     .352806000000D+06  .400000000000D+01
 9 15 12 31  4  0  0.0  .398824922740D-04  .795807864051D-11  .000000000000D+00
     .440000000000D+02  .276875000000D+02  .482091509618D-08  .886786903400D+00
     .145286321640D-05  .539341126569D-03  .584498047829D-05  .515366271400D+04
     .360000000000D+06 -.186264514923D-07  .255330565838D+01  .745058059692D-08
     .955894932564D+00  .262125000000D+03  .190964121151D+01 -.824284334751D-08
     .410731394325D-10  .100000000000D+01  .187700000000D+04  .000000000000D+00
     .240000000000D+01  .000000000000D+00  .931322574615D-09  .440000000000D+02
     .352806000000D+06  .400000000000D+01
10 15 12 31  4  0  0.0  .479556620121D-04  .238742359215D-11  .000000000000D+00
     .160000000000D+02  .210937500000D+02  .448911556111D-08  .300804320885D+01
     .119768083096D-05  .954448594712D-03  .103656202555D-04  .515368648720D+04
     .360000000000D+06  .372529029846D-08  .150801119049D+01 -.745058059692D-08
     .959099707701D+00  .177562500000D+03 -.296546311000D+01 -.793640201157D-08
     .331085219600D-09  .100000000000D+01  .187700000000D+04  .000000000000D+00
     .240000000000D+01  .000000000000D+00  .325962901115D-08  .160000000000D+02
     .352806000000D+06  .400000000000D+01
11 15 12 31  4  0  0.0 -.624679960310D-03 -.204636307899D-11  .000000000000D+00
     .790000000000D+02 -.691875000000D+02  .601632203253D-08 -.180063497076D+01
    -.338442623615D-05  .162397562526D-01  .532716512680D-05  .515364594269D+04
     .360000000000D+06  .320374965668D-06  .104856866727D+00  .312924385071D-06
     .895512798663D+00  .238437500000D+03  .149117224853D+01 -.874143554445D-08
    -.187150652719D-09  .100000000000D+01  .187700000000D+04  .000000000000D+00
     .340000000000D+01  .000000000000D+00 -.121071934700D-07  .790000000000D+02
     .352806000000D+06  .400000000000D+01
12 15 12 31  4  0  0.0  .357395503670D-03  .284217094304D-11  .000000000000D+00
     .300000000000D+02  .507187500000D+02  .389980529969D-08 -.229645272674D+01
     .266358256340D-05  .565314409323D-02  .755488872528D-05  .515355417824D+04
     .360000000000D+06  .577419996262D-07 -.157964849237D+01 -.763684511185D-07
     .990066444539D+00  .249187500000D+03  .638800330564D+00 -.774210820417D-08
     .231081054025D-09  .100000000000D+01  .187700000000D+04  .000000000000D+00
     .240000000000D+01  .000000000000D+00 -.125728547573D-07  .300000000000D+02
     .352806000000D+06  .400000000000D+01
13 15 12 31  4  0  0.0 -.175122637302D-03 -.261479726760D-11  .000000000000D+00
     .160000000000D+02  .186250000000D+02  .453376027789D-08 -.973513090522D+00
     .931322574615D-06  .465364672709D-02  .571645796299D-05  .515368128395D+04
     .360000000000D+06 -.353902578354D-07  .267172779872D+01 -.409781932831D-07
     .972512770546D+00  .277468750000D+03  .199981504890D+01 -.814641075928D-08
    -.432160858377D-10  .100000000000D+01  .187700000000D+04  .000000000000D+00
     .240000000000D+01  .000000000000D+00 -.111758708954D-07  .160000000000D+02
     .352806000000D+06  .400000000000D+01
14 15 12 31  4  0  0.0  .121560879052D-04 -.238742359215D-11  .000000000000D+00
     .740000000000D+02  .181875000000D+02  .474734060293D-08  .875560206734D+00
     .873580574989D-06  .830818014219D-02  .582262873650D-05  .515369890594D+04
     .360000000000D+06 -.121071934700D-06  .263566705386D+01  .931322574615D-08
     .964973243329D+00  .267468750000D+03 -.194748746837D+01 -.832641825731D-08
    -.746459664470D-10  .100000000000D+01  .187700000000D+04  .000000000000D+00
     .340000000000D+01  .000000000000D+00 -.931322574615D-08  .740000000000D+02
     .352806000000D+06  .400000000000D+01
